[{"OBJECT_NAME":"STARLINK-1451","OBJECT_ID":"2020-035M","EPOCH":"2026-03-09T09:59:04.620480","MEAN_MOTION":15.10044289,"ECCENTRICITY":0.00017292,"INCLINATION":53.0538,"RA_OF_ASC_NODE":67.2968,"ARG_OF_PERICENTER":37.5648,"MEAN_ANOMALY":322.5463,"EPHEMERIS_TYPE":0,"CLASSIFICATION_TYPE":"U","NORAD_CAT_ID":45668,"ELEMENT_SET_NO":999,"REV_AT_EPOCH":31870,"BSTAR":0.0020089514,"MEAN_MOTION_DOT":0.00032913,"MEAN_MOTION_DDOT":0},{"OBJECT_NAME":"FALCON 9 DEB","OBJECT_ID":"2021-041BL","EPOCH":"2026-03-09T15:17:24.182016","MEAN_MOTION":15.12006404,"ECCENTRICITY":0.0011978,"INCLINATION":53.0274,"RA_OF_ASC_NODE":188.0035,"ARG_OF_PERICENTER":181.8726,"MEAN_ANOMALY":178.2223,"EPHEMERIS_TYPE":0,"CLASSIFICATION_TYPE":"U","NORAD_CAT_ID":48837,"ELEMENT_SET_NO":999,"REV_AT_EPOCH":26181,"BSTAR":0.00029601,"MEAN_MOTION_DOT":4.852e-5,"MEAN_MOTION_DDOT":0}]
